[{"OBJECT_NAME":"TELEOS-2","OBJECT_ID":"2023-057C","EPOCH":"2026-03-08T15:30:11.035584","MEAN_MOTION":14.96380118,"ECCENTRICITY":8.033e-5,"INCLINATION":9.9874,"RA_OF_ASC_NODE":216.2411,"ARG_OF_PERICENTER":295.2771,"MEAN_ANOMALY":64.7359,"EPHEMERIS_TYPE":0,"CLASSIFICATION_TYPE":"U","NORAD_CAT_ID":56310,"ELEMENT_SET_NO":999,"REV_AT_EPOCH":15771,"BSTAR":1.5043378e-5,"MEAN_MOTION_DOT":8.63e-6,"MEAN_MOTION_DDOT":0},{"OBJECT_NAME":"STARLINK-34436","OBJECT_ID":"2025-126Q","EPOCH":"2026-03-09T22:40:27.274368","MEAN_MOTION":14.98334656,"ECCENTRICITY":0.00023739,"INCLINATION":70.0033,"RA_OF_ASC_NODE":33.6651,"ARG_OF_PERICENTER":262.9707,"MEAN_ANOMALY":97.1182,"EPHEMERIS_TYPE":0,"CLASSIFICATION_TYPE":"U","NORAD_CAT_ID":64358,"ELEMENT_SET_NO":999,"REV_AT_EPOCH":4072,"BSTAR":0.00030079177,"MEAN_MOTION_DOT":3.498e-5,"MEAN_MOTION_DDOT":0}]
